COSMOS 2251 DEB         
1 35065U 93036AHU 17345.95106536  .00000183  00000-0  68091-4 0  9995
2 35065  74.0223 204.1775 0021992 313.9541  45.9799 14.38823530262633
